{"type": "FeatureCollection", "features": [ {"type": "Feature", "properties": {"norad_id": 35159, "name": "FENGYUN 1C DEB", "group": "fengyun-1c-debris", "lat": 32.36022312394024, "lon": -108.32132732884081, "alt_km": 730.889572296428, "timestamp": "2025-12-16T15:45:51.333584+00:00", "meta": {"OBJECT_NAME": "FENGYUN 1C DEB", "OBJECT_ID": "1999-025DMP", "EPOCH": "2025-12-15T00:01:21.406944", "MEAN_MOTION": 14.45184746, "ECCENTRICITY": 0.00124562, "INCLINATION": 98.8398, "RA_OF_ASC_NODE": 64.2968, "ARG_OF_PERICENTER": 167.74, "MEAN_ANOMALY": 9.2116, "EPHEMERIS_TYPE": 0, "CLASSIFICATION_TYPE": "U", "NORAD_CAT_ID": 35159, "ELEMENT_SET_NO": 999, "REV_AT_EPOCH": 61513, "BSTAR": 0.0011945775, "MEAN_MOTION_DOT": 4.142e-05, "MEAN_MOTION_DDOT": 0}, "tle": {"line1": "1 35159U 99025DMP 25349.00094221  .00004142  00000+0  11946-2 0  9992", "line2": "2 35159  98.8398  64.2968 0012456 167.7400   9.2116 14.45184746615137"}}, "geometry": {"type": "Point", "coordinates": [-108.32132732884081, 32.36022312394024]}}, {"type": "Feature", "properties": {"norad_id": 35160, "name": "FENGYUN 1C DEB", "group": "fengyun-1c-debris", "lat": 78.62972050753739, "lon": -21.364497691550092, "alt_km": 846.1669282960502, "timestamp": "2025-12-16T15:45:51.333594+00:00", "meta": {"OBJECT_NAME": "FENGYUN 1C DEB", "OBJECT_ID": "1999-025DMQ", "EPOCH": "2025-12-15T00:50:17.672928", "MEAN_MOTION": 14.35972196, "ECCENTRICITY": 0.01761183, "INCLINATION": 99.1542, "RA_OF_ASC_NODE": 103.6061, "ARG_OF_PERICENTER": 232.7007, "MEAN_ANOMALY": 125.8012, "EPHEMERIS_TYPE": 0, "CLASSIFICATION_TYPE": "U", "NORAD_CAT_ID": 35160, "ELEMENT_SET_NO": 999, "REV_AT_EPOCH": 64964, "BSTAR": 0.0004386731, "MEAN_MOTION_DOT": 1.463e-05, "MEAN_MOTION_DDOT": 0}, "tle": {"line1": "1 35160U 99025DMQ 25349.03492677  .00001463  00000+0  43867-3 0  9995", "line2": "2 35160  99.1542 103.6061 0176118 232.7007 125.8012 14.35972196649644"}}, "geometry": {"type": "Point", "coordinates": [-21.364497691550092, 78.62972050753739]}}, {"type": "Feature", "properties": {"norad_id": 35165, "name": "FENGYUN 1C DEB", "group": "fengyun-1c-debris", "lat": -16.98331997342584, "lon": -100.10334476390997, "alt_km": 796.6606437579894, "timestamp": "2025-12-16T15:45:51.333605+00:00", "meta": {"OBJECT_NAME": "FENGYUN 1C DEB", "OBJECT_ID": "1999-025DMV", "EPOCH": "2025-11-30T05:14:00.190464", "MEAN_MOTION": 14.33570134, "ECCENTRICITY": 0.00218891, "INCLINATION": 98.8778, "RA_OF_ASC_NODE": 65.7738, "ARG_OF_PERICENTER": 100.7376, "MEAN_ANOMALY": 259.6273, "EPHEMERIS_TYPE": 0, "CLASSIFICATION_TYPE": "U", "NORAD_CAT_ID": 35165, "ELEMENT_SET_NO": 999, "REV_AT_EPOCH": 89541, "BSTAR": 0.0024382815, "MEAN_MOTION_DOT": 6.727e-05, "MEAN_MOTION_DDOT": 0}, "tle": {"line1": "1 35165U 99025DMV 25334.21805776  .00006727  00000+0  24383-2 0  9991", "line2": "2 35165  98.8778  65.7738 0021889 100.7376 259.6273 14.33570134895419"}}, "geometry": {"type": "Point", "coordinates": [-100.10334476390997, -16.98331997342584]}}, {"type": "Feature", "properties": {"norad_id": 35167, "name": "FENGYUN 1C DEB", "group": "fengyun-1c-debris", "lat": -70.07243873225188, "lon": 7.955259097387635, "alt_km": 807.486819771304, "timestamp": "2025-12-16T15:45:51.333615+00:00", "meta": {"OBJECT_NAME": "FENGYUN 1C DEB", "OBJECT_ID": "1999-025DMX", "EPOCH": "2025-12-14T05:22:50.340864", "MEAN_MOTION": 14.31163112, "ECCENTRICITY": 0.02292974, "INCLINATION": 98.4487, "RA_OF_ASC_NODE": 341.3842, "ARG_OF_PERICENTER": 199.7066, "MEAN_ANOMALY": 159.5149, "EPHEMERIS_TYPE": 0, "CLASSIFICATION_TYPE": "U", "NORAD_CAT_ID": 35167, "ELEMENT_SET_NO": 999, "REV_AT_EPOCH": 70041, "BSTAR": 0.00052381478, "MEAN_MOTION_DOT": 1.795e-05, "MEAN_MOTION_DDOT": 0}, "tle": {"line1": "1 35167U 99025DMX 25348.22419376  .00001795  00000+0  52381-3 0  9996", "line2": "2 35167  98.4487 341.3842 0229297 199.7066 159.5149 14.31163112700417"}}, "geometry": {"type": "Point", "coordinates": [7.955259097387635, -70.07243873225188]}}, {"type": "Feature", "properties": {"norad_id": 35168, "name": "FENGYUN 1C DEB", "group": "fengyun-1c-debris", "lat": 7.26580324467228, "lon": -118.8061705489772, "alt_km": 870.8259641873092, "timestamp": "2025-12-16T15:45:51.333625+00:00", "meta": {"OBJECT_NAME": "FENGYUN 1C DEB", "OBJECT_ID": "1999-025DMY", "EPOCH": "2025-12-11T11:53:15.848448", "MEAN_MOTION": 14.15522112, "ECCENTRICITY": 0.01260569, "INCLINATION": 98.2752, "RA_OF_ASC_NODE": 237.4634, "ARG_OF_PERICENTER": 131.2558, "MEAN_ANOMALY": 229.9558, "EPHEMERIS_TYPE": 0, "CLASSIFICATION_TYPE": "U", "NORAD_CAT_ID": 35168, "ELEMENT_SET_NO": 999, "REV_AT_EPOCH": 57906, "BSTAR": 0.00034767464, "MEAN_MOTION_DOT": 6.96e-06, "MEAN_MOTION_DDOT": 0}, "tle": {"line1": "1 35168U 99025DMY 25345.49532232  .00000696  00000+0  34767-3 0  9997", "line2": "2 35168  98.2752 237.4634 0126056 131.2558 229.9558 14.15522112579063"}}, "geometry": {"type": "Point", "coordinates": [-118.8061705489772, 7.26580324467228]}}, {"type": "Feature", "properties": {"norad_id": 35169, "name": "FENGYUN 1C DEB", "group": "fengyun-1c-debris", "lat": 0.05968499738703784, "lon": -125.3989217970128, "alt_km": 709.4554335250969, "timestamp": "2025-12-16T15:45:51.333636+00:00", "meta": {"OBJECT_NAME": "FENGYUN 1C DEB", "OBJECT_ID": "1999-025DMZ", "EPOCH": "2025-12-13T21:54:45.837792", "MEAN_MOTION": 14.5866776, "ECCENTRICITY": 0.01527117, "INCLINATION": 99.1288, "RA_OF_ASC_NODE": 231.5975, "ARG_OF_PERICENTER": 104.1831, "MEAN_ANOMALY": 257.6385, "EPHEMERIS_TYPE": 0, "CLASSIFICATION_TYPE": "U", "NORAD_CAT_ID": 35169, "ELEMENT_SET_NO": 999, "REV_AT_EPOCH": 65797, "BSTAR": 0.00059843273, "MEAN_MOTION_DOT": 3.218e-05, "MEAN_MOTION_DDOT": 0}, "tle": {"line1": "1 35169U 99025DMZ 25347.91303053  .00003218  00000+0  59843-3 0  9999", "line2": "2 35169  99.1288 231.5975 0152711 104.1831 257.6385 14.58667760657970"}}, "geometry": {"type": "Point", "coordinates": [-125.3989217970128, 0.05968499738703784]}}, {"type": "Feature", "properties": {"norad_id": 35171, "name": "FENGYUN 1C DEB", "group": "fengyun-1c-debris", "lat": -66.53280277380146, "lon": -59.503098042591496, "alt_km": 866.7897848889625, "timestamp": "2025-12-16T15:45:51.333645+00:00", "meta": {"OBJECT_NAME": "FENGYUN 1C DEB", "OBJECT_ID": "1999-025DNB", "EPOCH": "2025-12-12T21:03:14.512320", "MEAN_MOTION": 13.94966828, "ECCENTRICITY": 0.01379064, "INCLINATION": 99.0086, "RA_OF_ASC_NODE": 138.2387, "ARG_OF_PERICENTER": 318.3422, "MEAN_ANOMALY": 40.73, "EPHEMERIS_TYPE": 0, "CLASSIFICATION_TYPE": "U", "NORAD_CAT_ID": 35171, "ELEMENT_SET_NO": 999, "REV_AT_EPOCH": 88560, "BSTAR": 0.0023007152, "MEAN_MOTION_DOT": 3.307e-05, "MEAN_MOTION_DDOT": 0}, "tle": {"line1": "1 35171U 99025DNB 25346.87725130  .00003307  00000+0  23007-2 0  9991", "line2": "2 35171  99.0086 138.2387 0137906 318.3422  40.7300 13.94966828885609"}}, "geometry": {"type": "Point", "coordinates": [-59.503098042591496, -66.53280277380146]}}, {"type": "Feature", "properties": {"norad_id": 35173, "name": "FENGYUN 1C DEB", "group": "fengyun-1c-debris", "lat": 65.64973106769085, "lon": -95.5192072431711, "alt_km": 1106.0029819947213, "timestamp": "2025-12-16T15:45:51.333656+00:00", "meta": {"OBJECT_NAME": "FENGYUN 1C DEB", "OBJECT_ID": "1999-025DND", "EPOCH": "2025-12-14T23:39:41.909472", "MEAN_MOTION": 13.37345431, "ECCENTRICITY": 0.04907364, "INCLINATION": 99.7868, "RA_OF_ASC_NODE": 60.45, "ARG_OF_PERICENTER": 208.202, "MEAN_ANOMALY": 149.1718, "EPHEMERIS_TYPE": 0, "CLASSIFICATION_TYPE": "U", "NORAD_CAT_ID": 35173, "ELEMENT_SET_NO": 999, "REV_AT_EPOCH": 65859, "BSTAR": 0.0020827497, "MEAN_MOTION_DOT": 2.139e-05, "MEAN_MOTION_DDOT": 0}, "tle": {"line1": "1 35173U 99025DND 25348.98590173  .00002139  00000+0  20827-2 0  9993", "line2": "2 35173  99.7868  60.4500 0490736 208.2020 149.1718 13.37345431658594"}}, "geometry": {"type": "Point", "coordinates": [-95.5192072431711, 65.64973106769085]}}, {"type": "Feature", "properties": {"norad_id": 35174, "name": "FENGYUN 1C DEB", "group": "fengyun-1c-debris", "lat": 71.4248174367769, "lon": -62.48729078641412, "alt_km": 573.0031067768841, "timestamp": "2025-12-16T15:45:51.333666+00:00", "meta": {"OBJECT_NAME": "FENGYUN 1C DEB", "OBJECT_ID": "1999-025DNE", "EPOCH": "2025-12-13T04:07:25.072608", "MEAN_MOTION": 14.98877767, "ECCENTRICITY": 0.01541479, "INCLINATION": 98.9697, "RA_OF_ASC_NODE": 321.54, "ARG_OF_PERICENTER": 181.4297, "MEAN_ANOMALY": 178.6503, "EPHEMERIS_TYPE": 0, "CLASSIFICATION_TYPE": "U", "NORAD_CAT_ID": 35174, "ELEMENT_SET_NO": 999, "REV_AT_EPOCH": 90172, "BSTAR": 0.0023807921, "MEAN_MOTION_DOT": 0.0003695, "MEAN_MOTION_DDOT": 0}, "tle": {"line1": "1 35174U 99025DNE 25347.17181797  .00036950  00000+0  23808-2 0  9992", "line2": "2 35174  98.9697 321.5400 0154147 181.4297 178.6503 14.98877767901722"}}, "geometry": {"type": "Point", "coordinates": [-62.48729078641412, 71.4248174367769]}}, {"type": "Feature", "properties": {"norad_id": 35175, "name": "FENGYUN 1C DEB", "group": "fengyun-1c-debris", "lat": -43.427981749334414, "lon": 170.6773001333829, "alt_km": 798.3375385252975, "timestamp": "2025-12-16T15:45:51.333676+00:00", "meta": {"OBJECT_NAME": "FENGYUN 1C DEB", "OBJECT_ID": "1999-025DNF", "EPOCH": "2025-12-07T17:49:32.813760", "MEAN_MOTION": 14.2129013, "ECCENTRICITY": 0.00571803, "INCLINATION": 98.5747, "RA_OF_ASC_NODE": 350.2325, "ARG_OF_PERICENTER": 294.8485, "MEAN_ANOMALY": 64.6753, "EPHEMERIS_TYPE": 0, "CLASSIFICATION_TYPE": "U", "NORAD_CAT_ID": 35175, "ELEMENT_SET_NO": 999, "REV_AT_EPOCH": 61164, "BSTAR": 0.00067844318, "MEAN_MOTION_DOT": 1.46e-05, "MEAN_MOTION_DDOT": 0}, "tle": {"line1": "1 35175U 99025DNF 25341.74274090  .00001460  00000+0  67844-3 0  9996", "line2": "2 35175  98.5747 350.2325 0057180 294.8485  64.6753 14.21290130611646"}}, "geometry": {"type": "Point", "coordinates": [170.6773001333829, -43.427981749334414]}}]}